[{"OBJECT_NAME":"STARLINK-3200","OBJECT_ID":"2021-115AF","EPOCH":"2026-03-09T12:34:54.939936","MEAN_MOTION":15.08835813,"ECCENTRICITY":0.00017546,"INCLINATION":53.2163,"RA_OF_ASC_NODE":149.8673,"ARG_OF_PERICENTER":69.5833,"MEAN_ANOMALY":290.5348,"EPHEMERIS_TYPE":0,"CLASSIFICATION_TYPE":"U","NORAD_CAT_ID":49753,"ELEMENT_SET_NO":999,"REV_AT_EPOCH":23551,"BSTAR":-7.9507e-7,"MEAN_MOTION_DOT":-3.01e-6,"MEAN_MOTION_DDOT":0},{"OBJECT_NAME":"NOAA 17 DEB","OBJECT_ID":"2002-032W","EPOCH":"2026-03-09T23:34:50.358720","MEAN_MOTION":15.06684432,"ECCENTRICITY":0.0012716,"INCLINATION":98.7039,"RA_OF_ASC_NODE":76.0065,"ARG_OF_PERICENTER":104.6864,"MEAN_ANOMALY":255.577,"EPHEMERIS_TYPE":0,"CLASSIFICATION_TYPE":"U","NORAD_CAT_ID":48181,"ELEMENT_SET_NO":999,"REV_AT_EPOCH":26088,"BSTAR":0.0078736038,"MEAN_MOTION_DOT":0.00118919,"MEAN_MOTION_DDOT":0}]
